[
    {
        "Altitude(m)": 610405.3013491455,
        "Argument of Periapsis(deg)": 0.0,
        "Eccentricity": 0.0,
        "Inclination(deg)": 60.0,
        "Latitude(deg)": 52.11121175794846,
        "Longitude(deg)": -157.52244328336778,
        "Mean Anomaly(deg)": 114.5455,
        "RAAN(deg)": 170.00000000000003,
        "Satellite Name": "Test1 755",
        "Satellite Number": 755,
        "Semi-Major Axis(m)": 6980739.136638005,
        "Time(s)": 0
    },
    {
        "Altitude(m)": 610321.8737323105,
        "Argument of Periapsis(deg)": 0.00010418945913296404,
        "Eccentricity": 0.0,
        "Inclination(deg)": 60.0,
        "Latitude(deg)": 51.745925278895896,
        "Longitude(deg)": -156.75355229303048,
        "Mean Anomaly(deg)": 115.16560614546182,
        "RAAN(deg)": 169.99957995086027,
        "Satellite Name": "Test1 755",
        "Satellite Number": 755,
        "Semi-Major Axis(m)": 6980739.136638005,
        "Time(s)": 10
    }
]